#dP2024  6 25  0  0  0.00000000      97 __u+U IGS20 FIT  IAC
## 2320 172800.00000000   900.00000000 60486 0.0000000000000
+  116   C06C08C09C10C11C12C13C14C16C19C20C21C22C23C24C25C26
+        C27C28C29C30C32C33C34C35C36C37C38C39C40C41C42C43C44
+        C45E02E03E04E05E07E08E09E10E11E12E13E14E15E18E19E21
+        E25E26E27E24E30E31E33E34E36G02G03G04G05G06G07G08G09
+        G10G11G12G13G14G15G16G17G18G19G20G21G22G23G24G25G26
+        G27G28G29G30G31G32J02J04R01R02R03R04R05R07R08R09R11
+        R12R13R14R15R16R17R18R19R20R21R22R24R25R26  0  0  0
++       -10-10-10 -9-14-14-10-11-10-15-15-14-14-15-12-13-16
++       -13-16-16-16-14-15-14-15-13-15-11-11 -7-14-16-16-13
++       -16-16-18-17-19-19-16-18-19-19-18-20-17-18-17-17-19
++       -18-19-19-19-17-17-18-18-19-18-18-15-16-19-20-18-19
++       -18-19-18-16-20-18-18-17-20-20-19-17-15-20-17-19-20
++       -18-19-18-17-20-19 -5 -5-11-11-10-13-13-11-12-11-15
++       -11-12-14-15-10-13-10-10-15-13-11-14 -7  2  0  0  0
%c M  cc GPS ccc cccc cccc cccc cccc ccccc ccccc ccccc ccccc
%c cc cc ccc ccc cccc cccc cccc cccc ccccc ccccc ccccc ccccc
%f  1.2500000  1.025000000  0.00000000000  0.000000000000000
%f  0.0000000  0.000000000  0.00000000000  0.000000000000000
%i    0    0    0    0      0      0      0      0         0
%i    0    0    0    0      0      0      0      0         0
/* INFORMATION & ANALYSIS CENTER (IAC)            FINAL DATA
/* S/V CLOCKS ARE ALIGNED TO GNSS TIME                      
/* G:C1WC2W R:C1PC2P E:C1XC5X C:C2IC6I J:C1CC2S             
/* PCV:IGS20_2247 OL/AL:FES2004  NONE     YN ORB:CoN CLK:CoN
*  2024 06 25  8 15  0.00000000
PC06 -18446.124754  35467.644396 -13749.163494    534.654637
PC08  -7897.194162  19034.195479  36755.313811   -248.053707
PC09 -11968.327929  34197.551482 -21603.805402     60.441280
PC10   3859.836909  38267.799592 -16217.515050    -45.801760
PC11 -17569.362812   8667.135799 -19804.975773    630.724670
PC12 -11284.324214 -12336.861456 -22311.829199   -259.508434
PC13  -1092.658080  21696.069711  36296.332684    438.523806
PC14 -19480.644289  -1989.683549  19915.527036    910.981563
PC16 -19822.686474  35225.575154 -12318.256751   -612.684686
PC19  14004.822306  -7378.139200 -22959.793073   -915.386305
PC20  21466.303927   9482.180256 -15065.624844   -613.821450
PC21 -16567.946186 -22298.672359  -2830.999218   -966.504873
PC22  -1943.198968 -21100.473480 -18183.839552     40.050571
PC23  -9428.339886  16712.618451 -20250.211119   -790.833936
PC24 -25910.872605  -2456.409680  10032.316404    895.507659
PC25 -24728.080635  10679.602122  -7266.024566    434.719522
PC26 -12030.869067 -13215.863685  21410.174415   -310.697052
PC27   6144.577042  20382.897412  18021.497278    331.867953
PC28  -5936.700030  26821.748575   4896.947933    255.267888
PC29  16120.449385 -17722.814038  14305.063987    299.637385
PC30  15873.581551   2979.801259  22744.731274   -112.989703
PC32  16647.291600  22185.515082   2968.494683   -656.166313
PC33 -14094.382792   7349.674726  22937.469371   -960.308245
PC34 -16407.219881  -1080.076466 -22565.117147    463.250977
PC35   5159.711868 -27034.054003  -4526.963301    329.291426
PC36  24908.583865 -10206.196178   7404.271523    119.622957
PC37  11698.568611  13501.157311 -21428.181802   -934.818429
PC38 -16235.357861  19401.146513  33730.403470    163.376287
PC39 -21803.830650  35659.295562  -6373.910219     -8.887699
PC40  -6078.715963  33424.978856 -24741.028576    -76.888998
PC41   1122.446842  20669.513856  18753.789238   -957.371889
PC42 -21726.517004 -10974.141018  13721.979050   -448.294234
PC43 -16466.516829  16848.554999 -14984.334367     76.573882
PC44  -6983.211262 -20257.588128 -17882.871742    513.944926
PC45   9846.684086 -16548.657209  20208.396431    -97.786834
PE02 -20474.555427 -17902.858335  11667.994380    138.238124
PE03 -11751.378421 -23966.786512  12812.936340   -122.666462
PE04  17151.610742   4199.317764 -23745.553422   -429.625955
PE05    427.434983 -29108.194517  -5376.445960   4760.156039
PE07 -12622.773781  16919.650730  20751.328694   -127.657745
PE08 -17004.898285  -5284.941990  23650.623014   -292.524996
PE09  12529.074811 -16851.515005 -20865.573095   -492.300940
PE10  25624.721843 -11821.102335   8932.661582   -635.438652
PE11  23259.779799 -18244.425390  -1418.769744   2546.915323
PE12  24012.867885  -4198.023458  16769.627865  -1096.617814
PE13 -23508.660836  17973.577528    810.495340    -22.506641
PE14 -16569.035973 -22033.793754 -16783.066315     87.380385
PE15 -23771.119400   3767.419014 -17236.773936   -110.947880
PE18  15070.226489   8554.419578  16821.343510    261.036980
PE19  10530.509372  25295.655238 -11182.556659    178.279294
PE21   1791.954442  18305.069242 -23189.174973   -601.894161
PE25  -1323.590876 -18195.145949  23316.840934      6.148609
PE26  -8909.080083  21435.842469  18361.298805    493.823516
PE27 -18678.502183   8029.426154 -21507.545203   -384.016122
PE24  18933.901318  -7829.973540  21356.113348   -838.195383
PE30 -27877.100714  -6967.042742  -7100.004237   -440.730246
PE31  27889.328548   6841.396766   7184.736796    -27.428728
PE33   9627.311344  12772.930307  24901.836920     13.139357
PE34 -10108.243738 -12425.147139 -24902.488138   -118.978455
PE36   9516.850957 -21429.636124 -18066.302108   -246.045517
PG02  12374.576355 -21038.154434  -9620.819686   -411.248139
PG03    785.015997 -15279.970731 -21886.273968    429.589670
PG04   1738.406489 -25499.736553  -6944.524920    390.503565
PG05 -16997.463486   7814.485435  18704.158712   -177.531469
PG06 -19517.548204    269.417118 -18003.365074    198.965923
PG07  -5492.448634 -15295.918450  21460.554142    -84.205807
PG08   7967.040737 -19226.012345  16140.887481    245.912833
PG09  -7792.003298 -24938.168396   4532.359648    248.114627
PG10  24376.420139  10846.131987   1985.028997    -50.645466
PG11 -23122.622351  10966.895981  -6975.931561   -692.590498
PG12  -4449.467023  14766.728542 -21906.668037   -516.997277
PG13 -13294.748459  11346.015250  19714.940427    660.299726
PG14 -22491.996476 -13373.368545   5223.328532    433.683716
PG15  -5454.114163  20403.031737  15489.748510    173.971967
PG16  20291.518612  -3096.009445  16761.059550   -254.652003
PG17 -12734.232709 -16260.783272 -16189.759419    689.147804
PG18   5355.430356  14437.757859  21626.680917   -629.230974
PG19 -14855.390127  -7369.618164 -21005.515659    501.334557
PG20 -23644.175787   3679.745875  11423.059318    373.456692
PG21  15839.028270 -19978.631612  -4708.196531    113.183523
PG22 -24269.520827  -9950.461746  -2579.379557    -31.704276
PG23  17687.334992  15340.218993  12758.355221    258.614494
PG24 -12783.463834  21529.360454  -8635.443041   -479.863451
PG25   7314.325637  17294.050011 -19219.877835    497.794404
PG26  25963.635095   3618.716990   5205.160637    131.174590
PG27  13488.387787  -8187.716656  21010.159574    -29.354380
PG28  18371.928105   1778.916975 -19107.883434   -303.987611
PG29   3387.149519  26205.875309   1854.076740   -592.639438
PG30 -15321.061035  -7227.627255  20659.101632   -368.577755
PG31  23063.100005  -7528.700224 -11472.632984   -227.195982
PG32  14539.037105  13800.940688 -17310.690448   -615.033915
PJ02 -26314.223740  15842.829322 -24228.276503     -0.405266
PJ04 -25313.632055  26733.652927  26390.570041     50.410193
PR01 -15873.998935 -18328.804906   7949.988549     89.445392
PR02 -13934.274871  -4875.792568  20829.024446    -23.425471
PR03  -4815.702401  12140.556186  21968.571300    102.717257
PR04   6591.011309  21967.735437  11206.712878    242.669502
PR05  14467.776956  20260.034815  -5596.448337    133.622361
PR07   4344.267426 -12672.278691 -21655.898240     85.305340
PR08  -6938.926252 -21978.611498 -10835.706492     -5.313635
PR09  25422.734493  -1298.048106    611.561337    194.147913
PR11   1619.869333 -10956.542220  22990.906185     20.291540
PR12 -18352.338355  -7501.156006  16073.220179     41.716799
PR13 -25420.931315   -400.183686   2061.600464    -48.673930
PR14 -17754.034217   8295.826021 -16325.282324     26.636625
PR15    122.192023  11059.230124 -22960.898799     78.499811
PR16  18206.113574   7373.302649 -16235.790092     26.800495
PR17 -14400.715716  20448.876918  -4893.038180     98.929882
PR18  -6893.733532  21754.833271  11451.873708    148.729878
PR19   2742.919357  13535.612444  21437.429715   -281.557502
PR20  14546.731932  -6166.724015  20015.294293   -115.059259
PR21  14666.225827 -20225.161941   5221.771342   -112.180789
PR22   6501.536219 -21334.834952 -12348.142694     98.161168
PR24 -14764.975673   7140.499945 -19518.345628    -61.239773
PR25  15183.250667 -20000.103471   4558.959441    -83.523740
PR26  -6214.444937 -21597.808848 -12069.057817     -5.548963
EOF
